#dP2021  5 11  0  0  0.00000000      96 __u+U ITR00 EXT  IAC
## 2157 172800.00000000   900.00000000 59345 0.0000000000000
+  116   C06C07C08C09C10C11C12C13C14C16C19C20C21C22C23C24C25
+        C26C27C28C29C30C32C33C34C35C36C37C38C39C40C41C42C43
+        C44C45C46E01E02E03E04E05E07E08E09E11E12E13E14E15E18
+        E19E21E24E25E26E27E30E31E33E36G01G02G03G04G05G06G07
+        G08G09G10G12G13G14G15G16G17G18G19G20G21G22G23G24G25
+        G26G27G28G29G30G31G32J01J02J03R01R02R03R04R05R07R08
+        R09R11R12R13R14R15R16R17R18R19R20R21R22R24  0  0  0
++         8  9  9  9  9 10  9 10  8  9  8  9  8  8  9  9  8
++        10  8  8  9 10 10  7  8  7  8  9 10 11  9  9  8  8
++         7  9  9  8  8  8  7  8  8  7  7  9  8  8  8  8  7
++         7  8  8  9  8  8  9  7  8  8  7  8  8  8  8  8  9
++         8  8  7  8  7  8  8  7  8  7  7  8  7  7  7  8  7
++         9  7  8  7  7  9  7  9  9 10  8  9  8  8  8  9  9
++        10  9  8  8  9  9  9  7  8  9  8  8  8  9  0  0  0
%c M  cc GPS ccc cccc cccc cccc cccc ccccc ccccc ccccc ccccc
%c cc cc ccc ccc cccc cccc cccc cccc ccccc ccccc ccccc ccccc
%f  0.0000000  0.000000000  0.00000000000  0.000000000000000
%f  0.0000000  0.000000000  0.00000000000  0.000000000000000
%i    0    0    0    0      0      0      0      0         0
%i    0    0    0    0      0      0      0      0         0
/* IAC                                ULTRA-RAPID PREDICTION
/* S/V CLOCKS ARE ALIGNED TO GNSS TIME                      
/* G:C1WC2W R:C1PC2P E:C1XC5X C:C2IC6I J:C1CC2S             
/* PCV:IGS14_2148 OL/AL:FES2004  NONE     YN ORB:CoN CLK:CoN
*  2021 05 11  2 15  0.00000000
PC06 -13663.539011  37515.397370 -12272.574256    370.955989
PC07 -12152.881039  23856.672083  32847.028457   -209.456872
PC08 -25915.658211  25570.494190 -21484.718665   -890.255749
PC09  -5077.317918  41543.629464   2715.787043    532.868967
PC10   4085.360874  30313.407853  29396.564475    -44.433950
PC11 -15319.690320  -1742.382209  23317.441951    333.831168
PC12  -7201.124984 -20252.155289  17817.929592    889.264899
PC13 -12547.163420  27077.997674 -29785.891595    255.891576
PC14 -23120.666882  -9642.318237 -12201.775969    697.379883
PC16 -11429.478851  39211.783203  -9858.773293   -830.671111
PC19  20394.150511    746.213075  19075.408033    830.297458
PC20  22459.599496  15820.166850   5028.962689   -922.483460
PC21 -11070.614686 -22191.441689  12793.432176   -942.401833
PC22   6482.533604 -15205.594135  22488.400366   -957.653313
PC23 -17270.926239  16245.458284  14718.040264   -904.424403
PC24 -20511.764183  -6929.015350 -17626.200175   -845.659995
PC25 -26766.985622   7794.119829  -1458.303198   -918.975352
PC26  -3648.028406 -15832.280575 -22695.001730    908.830934
PC27   1083.260532  25881.200773 -10374.878887    529.636196
PC28 -11109.720693  24552.541856   7250.003282    -75.917249
PC29  16401.494522  -9429.643550 -20525.574607    390.596222
PC30  12820.507912  12102.513104 -21632.973557    466.497585
PC32  11292.463320  22112.285822 -12731.347055   -935.154051
PC33 -20417.486664   -685.355859 -18988.139812   -939.129669
PC34 -13119.900516 -11427.012142  21812.038056   -676.284572
PC35  10461.292887 -24767.403086  -7555.792011   -286.643438
PC36  26978.234922  -6910.102458   1831.779810   -727.203228
PC37   2225.890915  16190.960260  22636.965815   -895.781725
PC38 -20440.982595  27843.208242 -24249.599000    147.924137
PC39  -7227.408729  40723.314322  -7716.865417     30.997354
PC40   -505.387266  26005.207217  33236.700972    159.737741
PC41  -6688.445884  15054.063429 -22470.315347   -944.725834
PC42 -22232.547162 -16297.876469  -4224.494198   -916.217247
PC43 -16570.011559   8748.658025  20661.342416   -724.634980
PC44  -1831.255006 -25961.982925  10107.500573    181.639857
PC45  17155.978084 -16228.860584 -14851.038579    436.855709
PC46  21174.384726   6158.463539  17088.702205    276.657528
PE01  29225.044736   4594.598340   -941.908729  -1105.180188
PE02 -29241.597640  -4519.774233   1054.451512    218.212413
PE03 -18920.191808  -7345.555488 -21535.611366   -429.569496
PE04  12283.812548 -13967.402118  23037.173075   -768.315266
PE05 -14552.840511 -24698.242265  -7359.501178   -281.957083
PE07   1771.521431  27456.638931 -10919.359606   -536.176927
PE08 -11879.818706  14311.777842 -23021.234027   6004.087756
PE09  -2064.364501 -27457.469322  10851.247252   5671.984665
PE11   9201.016158 -24796.950696  13303.484923   5995.274318
PE12  21280.918167 -19733.673586  -5887.984912   5216.821194
PE13  -9478.040915  24847.904579 -12983.373981    416.227198
PE14   5896.024570 -25239.988609 -10002.142904  -1426.761447
PE15 -21178.417549  19820.674560   5874.623147    814.939237
PE18   6436.381903  28728.740832  -5082.560092  -1561.596441
PE19  18898.702402   9822.542279  20566.625365    273.812441
PE21  20069.609964  14583.073667  16143.077180   -664.206098
PE24   2070.978855 -16484.140073 -24512.387148   -893.469166
PE25 -19902.735126 -14653.011610 -16288.736944   -533.456807
PE26   8507.182492  14733.591670 -24220.905580   1824.973716
PE27  -1089.715781  16572.114572  24502.073717    -29.739539
PE30 -22233.044901   8176.441981  17744.723028   2955.442206
PE31  21452.034853  -8803.059882 -18393.289020   -481.034689
PE33  20393.283830  -3153.705967 -21224.224980   -468.461816
PE36  -7768.782466 -15246.061823  24156.384944   -205.413374
PG01 -10285.693585  20037.175954 -14048.498252    692.609506
PG02  21616.785936 -13227.183311  -7375.949256   -603.181265
PG03  -1203.425917  15472.127820 -21649.021956   -160.603969
PG04  -1850.690227  25505.070276  -7060.681633   -195.763627
PG05  17368.753956  -7800.955621  18443.281052    -41.576921
PG06  20251.042409  -1727.607522 -17073.998511     14.598674
PG07   3852.580792  16070.567734  21047.368491    147.375987
PG08  -7173.832426  20309.729886  15323.447296    -20.768032
PG09   6906.048051  25396.296025   3430.511909   -344.708626
PG10 -23585.443140 -11921.583352   3958.077910   -119.480333
PG12   4615.489999 -14419.363980 -22084.747258    -39.423217
PG13  13014.431731 -12455.587198  19339.748489    130.515275
PG14  22744.197963  13112.334551   4125.579284     87.404965
PG15   5222.444123 -21305.522224  14362.225238   -150.245395
PG16 -20869.872602   2084.413303  16319.112814   -323.235215
PG17  12681.346620  15916.321130 -16639.665174    440.427231
PG18  -6743.351037 -13677.819093  21731.176171    350.660007
PG19  14667.298314   6876.542981 -21356.787485     -1.590164
PG20   4998.274427 -14917.966711  21338.495019    522.313587
PG21 -15914.500311  20051.154951  -5333.157174    117.261225
PG22 -11526.813397  12348.646025 -20261.148633   -617.327392
PG23 -16244.565202 -15907.261088  13749.253716    107.680064
PG24  13165.518168 -21155.023557  -8853.585639     70.010628
PG25  -9523.814338 -17253.825633 -18195.361557    134.900923
PG26 -25314.850586  -2281.559602   8105.602594     83.702771
PG27 -12894.502881   9408.704370  20981.362219   -127.938390
PG28  23845.775002  11409.509779   -583.406239    573.289187
PG29  -4537.555486 -25891.175234   3579.667812   -344.959975
PG30  15877.600380   6650.422207  20340.063922   -424.444270
PG31 -22039.400316   3778.238321 -14764.070090   -116.582577
PG32 -14810.050221 -13052.126053 -17737.873758     21.415565
PJ01 -21733.204875  19433.488045 -25878.722756   -377.100182
PJ02 -28746.165710  23658.079231  24700.559786      7.774233
PJ03 -29620.160594  26537.376141  19004.856522     -5.176641
PR01  17571.867795  17202.833647   6821.535347     79.248154
PR02  13253.418276    601.050657  21821.611627    478.122172
PR03   1455.757726 -14676.202465  20874.678655     35.717208
PR04 -11068.960776 -21444.209043   8303.485330     86.234177
PR05 -17352.258030 -16427.612677  -8938.984598     71.499350
PR07   -963.978428  15059.392468 -20509.984049    -42.490763
PR08  11156.875194  21435.736439  -8079.478476    -58.948713
PR09 -24616.023491   5211.658729   3969.016514     -7.756117
PR11   5018.674038  10188.379797  22850.342566     -3.422333
PR12  21358.844707   3811.988727  13422.940640    227.900592
PR13  24812.009729  -4912.535664  -3327.592014    -54.560844
PR14  13470.063649 -10791.821576 -18778.746872     64.116327
PR15  -5395.613972 -10269.012146 -22699.638672    103.900221
PR16 -22135.099359  -2890.849666 -12485.137985    -14.963011
PR17  11265.709998 -22696.762969  -2778.880131    423.009727
PR18   2769.499554 -21405.144000  13651.931404     76.074320
PR19  -6577.001238  -9644.034876  22676.290955   -143.227463
PR20 -14039.316458  10371.153271  18583.048162    -48.884063
PR21 -10891.347223  23026.731033   1543.021025   -208.041739
PR22  -2189.273435  20773.067185 -14585.565949   -112.107404
PR24  14298.326599 -11137.083146 -17933.537183     42.161703
EOF
